CCSDS_OMM_VERS = 2.0
CREATION_DATE  = 
ORIGINATOR     = 

OBJECT_NAME    = UNKNOWN
OBJECT_ID      = 
CENTER_NAME    = EARTH
REF_FRAME      = TEME
TIME_SYSTEM    = UTC
MEAN_ELEMENT_THEORY = SGP/SGP4

EPOCH          = 2026-03-14T21:36:17.637696
MEAN_MOTION    = 13.55239879
ECCENTRICITY   = .0045886
INCLINATION    = 100.3270
RA_OF_ASC_NODE = 314.6497
ARG_OF_PERICENTER = 214.2968
MEAN_ANOMALY   = 145.5202

EPHEMERIS_TYPE = 0
CLASSIFICATION_TYPE = U
NORAD_CAT_ID   = 81438
ELEMENT_SET_NO = 999
REV_AT_EPOCH   = 60442
BSTAR          = .36913E-2
MEAN_MOTION_DOT = .2521E-4
MEAN_MOTION_DDOT = 0

CCSDS_OMM_VERS = 2.0
CREATION_DATE  = 
ORIGINATOR     = 

OBJECT_NAME    = UNKNOWN
OBJECT_ID      = 
CENTER_NAME    = EARTH
REF_FRAME      = TEME
TIME_SYSTEM    = UTC
MEAN_ELEMENT_THEORY = SGP/SGP4

EPOCH          = 2026-03-15T07:47:27.295872
MEAN_MOTION    = 12.62664386
ECCENTRICITY   = .0596031
INCLINATION    = 67.1617
RA_OF_ASC_NODE = 322.7789
ARG_OF_PERICENTER = 146.0652
MEAN_ANOMALY   = 218.0032

EPHEMERIS_TYPE = 0
CLASSIFICATION_TYPE = U
NORAD_CAT_ID   = 81439
ELEMENT_SET_NO = 999
REV_AT_EPOCH   = 27358
BSTAR          = .18903E-2
MEAN_MOTION_DOT = .625E-5
MEAN_MOTION_DDOT = 0

CCSDS_OMM_VERS = 2.0
CREATION_DATE  = 
ORIGINATOR     = 

OBJECT_NAME    = UNKNOWN
OBJECT_ID      = 
CENTER_NAME    = EARTH
REF_FRAME      = TEME
TIME_SYSTEM    = UTC
MEAN_ELEMENT_THEORY = SGP/SGP4

EPOCH          = 2026-03-15T06:38:51.256032
MEAN_MOTION    = 15.19966406
ECCENTRICITY   = .0022115
INCLINATION    = 66.7904
RA_OF_ASC_NODE = 78.5532
ARG_OF_PERICENTER = 13.7459
MEAN_ANOMALY   = 346.4282

EPHEMERIS_TYPE = 0
CLASSIFICATION_TYPE = U
NORAD_CAT_ID   = 81449
ELEMENT_SET_NO = 999
REV_AT_EPOCH   = 64751
BSTAR          = .78878E-2
MEAN_MOTION_DOT = .175413E-2
MEAN_MOTION_DDOT = 0

CCSDS_OMM_VERS = 2.0
CREATION_DATE  = 
ORIGINATOR     = 

OBJECT_NAME    = UNKNOWN
OBJECT_ID      = 
CENTER_NAME    = EARTH
REF_FRAME      = TEME
TIME_SYSTEM    = UTC
MEAN_ELEMENT_THEORY = SGP/SGP4

EPOCH          = 2026-03-13T17:25:04.761984
MEAN_MOTION    = 14.29085508
ECCENTRICITY   = .0146031
INCLINATION    = 98.9506
RA_OF_ASC_NODE = 352.0165
ARG_OF_PERICENTER = 93.8078
MEAN_ANOMALY   = 297.4636

EPHEMERIS_TYPE = 0
CLASSIFICATION_TYPE = U
NORAD_CAT_ID   = 81478
ELEMENT_SET_NO = 999
REV_AT_EPOCH   = 63593
BSTAR          = .14813E-2
MEAN_MOTION_DOT = .4166E-4
MEAN_MOTION_DDOT = 0

CCSDS_OMM_VERS = 2.0
CREATION_DATE  = 
ORIGINATOR     = 

OBJECT_NAME    = UNKNOWN
OBJECT_ID      = 
CENTER_NAME    = EARTH
REF_FRAME      = TEME
TIME_SYSTEM    = UTC
MEAN_ELEMENT_THEORY = SGP/SGP4

EPOCH          = 2026-03-15T11:22:12.329184
MEAN_MOTION    = 13.56556401
ECCENTRICITY   = .0044898
INCLINATION    = 99.9921
RA_OF_ASC_NODE = 313.4828
ARG_OF_PERICENTER = 128.9929
MEAN_ANOMALY   = 354.3057

EPHEMERIS_TYPE = 0
CLASSIFICATION_TYPE = U
NORAD_CAT_ID   = 81488
ELEMENT_SET_NO = 999
REV_AT_EPOCH   = 60920
BSTAR          = .36577E-3
MEAN_MOTION_DOT = .214E-5
MEAN_MOTION_DDOT = 0

CCSDS_OMM_VERS = 2.0
CREATION_DATE  = 
ORIGINATOR     = 

OBJECT_NAME    = UNKNOWN
OBJECT_ID      = 
CENTER_NAME    = EARTH
REF_FRAME      = TEME
TIME_SYSTEM    = UTC
MEAN_ELEMENT_THEORY = SGP/SGP4

EPOCH          = 2026-03-15T12:19:14.280672
MEAN_MOTION    = 13.84917578
ECCENTRICITY   = .0027707
INCLINATION    = 100.2993
RA_OF_ASC_NODE = 343.0713
ARG_OF_PERICENTER = 134.1283
MEAN_ANOMALY   = 47.4609

EPHEMERIS_TYPE = 0
CLASSIFICATION_TYPE = U
NORAD_CAT_ID   = 81497
ELEMENT_SET_NO = 999
REV_AT_EPOCH   = 22913
BSTAR          = .30322E-2
MEAN_MOTION_DOT = .3384E-4
MEAN_MOTION_DDOT = 0

CCSDS_OMM_VERS = 2.0
CREATION_DATE  = 
ORIGINATOR     = 

OBJECT_NAME    = UNKNOWN
OBJECT_ID      = 
CENTER_NAME    = EARTH
REF_FRAME      = TEME
TIME_SYSTEM    = UTC
MEAN_ELEMENT_THEORY = SGP/SGP4

EPOCH          = 2026-03-14T21:44:18.696480
MEAN_MOTION    = 14.47742241
ECCENTRICITY   = .000248
INCLINATION    = 74.0492
RA_OF_ASC_NODE = 48.8444
ARG_OF_PERICENTER = 222.9170
MEAN_ANOMALY   = 137.1796

EPHEMERIS_TYPE = 0
CLASSIFICATION_TYPE = U
NORAD_CAT_ID   = 81499
ELEMENT_SET_NO = 999
REV_AT_EPOCH   = 49575
BSTAR          = .10374E-2
MEAN_MOTION_DOT = .3807E-4
MEAN_MOTION_DDOT = 0

CCSDS_OMM_VERS = 2.0
CREATION_DATE  = 
ORIGINATOR     = 

OBJECT_NAME    = UNKNOWN
OBJECT_ID      = 
CENTER_NAME    = EARTH
REF_FRAME      = TEME
TIME_SYSTEM    = UTC
MEAN_ELEMENT_THEORY = SGP/SGP4

EPOCH          = 2026-03-15T10:41:03.863040
MEAN_MOTION    = 14.13662513
ECCENTRICITY   = .0233805
INCLINATION    = 98.1889
RA_OF_ASC_NODE = 154.0534
ARG_OF_PERICENTER = 240.0635
MEAN_ANOMALY   = 117.7139

EPHEMERIS_TYPE = 0
CLASSIFICATION_TYPE = U
NORAD_CAT_ID   = 81535
ELEMENT_SET_NO = 999
REV_AT_EPOCH   = 40049
BSTAR          = .46732E-3
MEAN_MOTION_DOT = .1103E-4
MEAN_MOTION_DDOT = 0

CCSDS_OMM_VERS = 2.0
CREATION_DATE  = 
ORIGINATOR     = 

OBJECT_NAME    = UNKNOWN
OBJECT_ID      = 
CENTER_NAME    = EARTH
REF_FRAME      = TEME
TIME_SYSTEM    = UTC
MEAN_ELEMENT_THEORY = SGP/SGP4

EPOCH          = 2026-03-14T08:54:44.735904
MEAN_MOTION    = 12.55988468
ECCENTRICITY   = .0020553
INCLINATION    = 101.9672
RA_OF_ASC_NODE = 300.5502
ARG_OF_PERICENTER = 97.1328
MEAN_ANOMALY   = 80.0110

EPHEMERIS_TYPE = 0
CLASSIFICATION_TYPE = U
NORAD_CAT_ID   = 81536
ELEMENT_SET_NO = 999
REV_AT_EPOCH   = 56331
BSTAR          = .40975E-2
MEAN_MOTION_DOT = .629E-5
MEAN_MOTION_DDOT = 0

CCSDS_OMM_VERS = 2.0
CREATION_DATE  = 
ORIGINATOR     = 

OBJECT_NAME    = UNKNOWN
OBJECT_ID      = 
CENTER_NAME    = EARTH
REF_FRAME      = TEME
TIME_SYSTEM    = UTC
MEAN_ELEMENT_THEORY = SGP/SGP4

EPOCH          = 2026-03-14T07:29:45.972096
MEAN_MOTION    = 14.07162755
ECCENTRICITY   = .0076584
INCLINATION    = 71.0374
RA_OF_ASC_NODE = 279.7893
ARG_OF_PERICENTER = 12.8668
MEAN_ANOMALY   = 347.4381

EPHEMERIS_TYPE = 0
CLASSIFICATION_TYPE = U
NORAD_CAT_ID   = 81537
ELEMENT_SET_NO = 999
REV_AT_EPOCH   = 63334
BSTAR          = .30336E-3
MEAN_MOTION_DOT = .475E-5
MEAN_MOTION_DDOT = 0

CCSDS_OMM_VERS = 2.0
CREATION_DATE  = 
ORIGINATOR     = 

OBJECT_NAME    = UNKNOWN
OBJECT_ID      = 
CENTER_NAME    = EARTH
REF_FRAME      = TEME
TIME_SYSTEM    = UTC
MEAN_ELEMENT_THEORY = SGP/SGP4

EPOCH          = 2026-03-13T05:59:25.230048
MEAN_MOTION    = 13.18334014
ECCENTRICITY   = .0256752
INCLINATION    = 99.0714
RA_OF_ASC_NODE = 351.4925
ARG_OF_PERICENTER = 160.5393
MEAN_ANOMALY   = 200.5747

EPHEMERIS_TYPE = 0
CLASSIFICATION_TYPE = U
NORAD_CAT_ID   = 81552
ELEMENT_SET_NO = 999
REV_AT_EPOCH   = 59117
BSTAR          = .1688E-2
MEAN_MOTION_DOT = .751E-5
MEAN_MOTION_DDOT = 0

CCSDS_OMM_VERS = 2.0
CREATION_DATE  = 
ORIGINATOR     = 

OBJECT_NAME    = UNKNOWN
OBJECT_ID      = 
CENTER_NAME    = EARTH
REF_FRAME      = TEME
TIME_SYSTEM    = UTC
MEAN_ELEMENT_THEORY = SGP/SGP4

EPOCH          = 2026-03-15T07:21:22.661856
MEAN_MOTION    = 13.31543380
ECCENTRICITY   = .0247535
INCLINATION    = 67.3023
RA_OF_ASC_NODE = 80.7139
ARG_OF_PERICENTER = 15.8013
MEAN_ANOMALY   = 3.6701

EPHEMERIS_TYPE = 0
CLASSIFICATION_TYPE = U
NORAD_CAT_ID   = 81599
ELEMENT_SET_NO = 999
REV_AT_EPOCH   = 59740
BSTAR          = .21646E-3
MEAN_MOTION_DOT = .61E-6
MEAN_MOTION_DDOT = 0

