UNKNOWN                 
1 81438U          26073.90020414  .00002521  00000+0  36913-2 0  9995
2 81438 100.3270 314.6497 0045886 214.2968 145.5202 13.55239879604423
UNKNOWN                 
1 81439U          26074.32462148  .00000625  00000+0  18903-2 0  9999
2 81439  67.1617 322.7789 0596031 146.0652 218.0032 12.62664386273586
UNKNOWN                 
1 81449U          26074.27698213  .00175413  00000+0  78878-2 0  9993
2 81449  66.7904  78.5532 0022115  13.7459 346.4282 15.19966406647519
UNKNOWN                 
1 81478U          26072.72574956  .00004166  00000+0  14813-2 0  9995
2 81478  98.9506 352.0165 0146031  93.8078 297.4636 14.29085508635934
UNKNOWN                 
1 81488U          26074.47375381  .00000214  00000+0  36577-3 0  9993
2 81488  99.9921 313.4828 0044898 128.9929 354.3057 13.56556401609202
UNKNOWN                 
1 81497U          26074.51335973  .00003384  00000+0  30322-2 0  9993
2 81497 100.2993 343.0713 0027707 134.1283  47.4609 13.84917578229131
UNKNOWN                 
1 81499U          26073.90577195  .00003807  00000+0  10374-2 0  9996
2 81499  74.0492  48.8444 0002480 222.9170 137.1796 14.47742241495758
UNKNOWN                 
1 81535U          26074.44518360  .00001103  00000+0  46732-3 0  9991
2 81535  98.1889 154.0534 0233805 240.0635 117.7139 14.13662513400498
UNKNOWN                 
1 81536U          26073.37135111  .00000629  00000+0  40975-2 0  9996
2 81536 101.9672 300.5502 0020553  97.1328  80.0110 12.55988468563315
UNKNOWN                 
1 81537U          26073.31233764  .00000475  00000+0  30336-3 0  9994
2 81537  71.0374 279.7893 0076584  12.8668 347.4381 14.07162755633341
UNKNOWN                 
1 81552U          26072.24959757  .00000751  00000+0  16880-2 0  9993
2 81552  99.0714 351.4925 0256752 160.5393 200.5747 13.18334014591172
UNKNOWN                 
1 81599U          26074.30651229  .00000061  00000+0  21646-3 0  9997
2 81599  67.3023  80.7139 0247535  15.8013   3.6701 13.31543380597400
